{
"type": "FeatureCollection",
"name": "landuse",
"crs": { "type": "name", "properties": { "name": "urn:ogc:def:crs:EPSG::32643" } },
"features": [
{ "type": "Feature", "properties": { "landuse": "rural", "weight": 1.0 }, "geometry": { "type": "Polygon", "coordinates": [ [ [ 501666.666666666686069, 1000000.0 ], [ 501666.666666666686069, 1001666.666666666627862 ], [ 500000.0, 1001666.666666666627862 ], [ 500000.0, 1000000.0 ], [ 501666.666666666686069, 1000000.0 ] ] ] } },
{ "type": "Feature", "properties": { "landuse": "urban", "weight": 10.0 }, "geometry": { "type": "Polygon", "coordinates": [ [ [ 503333.333333333372138, 1000000.0 ], [ 503333.333333333372138, 1001666.666666666627862 ], [ 501666.666666666686069, 1001666.666666666627862 ], [ 501666.666666666686069, 1000000.0 ], [ 503333.333333333372138, 1000000.0 ] ] ] } },
{ "type": "Feature", "properties": { "landuse": "urban", "weight": 10.0 }, "geometry": { "type": "Polygon", "coordinates": [ [ [ 505000.0, 1000000.0 ], [ 505000.0, 1001666.666666666627862 ], [ 503333.333333333313931, 1001666.666666666627862 ], [ 503333.333333333313931, 1000000.0 ], [ 505000.0, 1000000.0 ] ] ] } },
{ "type": "Feature", "properties": { "landuse": "water", "weight": 0.0 }, "geometry": { "type": "Polygon", "coordinates": [ [ [ 506666.666666666686069, 1000000.0 ], [ 506666.666666666686069, 1001666.666666666627862 ], [ 505000.0, 1001666.666666666627862 ], [ 505000.0, 1000000.0 ], [ 506666.666666666686069, 1000000.0 ] ] ] } },
{ "type": "Feature", "properties": { "landuse": "rural", "weight": 1.0 }, "geometry": { "type": "Polygon", "coordinates": [ [ [ 508333.333333333372138, 1000000.0 ], [ 508333.333333333372138, 1001666.666666666627862 ], [ 506666.666666666686069, 1001666.666666666627862 ], [ 506666.666666666686069, 1000000.0 ], [ 508333.333333333372138, 1000000.0 ] ] ] } },
{ "type": "Feature", "properties": { "landuse": "urban", "weight": 10.0 }, "geometry": { "type": "Polygon", "coordinates": [ [ [ 510000.0, 1000000.0 ], [ 510000.0, 1001666.666666666627862 ], [ 508333.333333333313931, 1001666.666666666627862 ], [ 508333.333333333313931, 1000000.0 ], [ 510000.0, 1000000.0 ] ] ] } },
{ "type": "Feature", "properties": { "landuse": "rural", "weight": 1.0 }, "geometry": { "type": "Polygon", "coordinates": [ [ [ 501666.666666666686069, 1001666.666666666627862 ], [ 501666.666666666686069, 1003333.333333333255723 ], [ 500000.0, 1003333.333333333255723 ], [ 500000.0, 1001666.666666666627862 ], [ 501666.666666666686069, 1001666.666666666627862 ] ] ] } },
{ "type": "Feature", "properties": { "landuse": "rural", "weight": 1.0 }, "geometry": { "type": "Polygon", "coordinates": [ [ [ 503333.333333333372138, 1001666.666666666627862 ], [ 503333.333333333372138, 1003333.333333333255723 ], [ 501666.666666666686069, 1003333.333333333255723 ], [ 501666.666666666686069, 1001666.666666666627862 ], [ 503333.333333333372138, 1001666.666666666627862 ] ] ] } },
{ "type": "Feature", "properties": { "landuse": "urban", "weight": 10.0 }, "geometry": { "type": "Polygon", "coordinates": [ [ [ 505000.0, 1001666.666666666627862 ], [ 505000.0, 1003333.333333333255723 ], [ 503333.333333333313931, 1003333.333333333255723 ], [ 503333.333333333313931, 1001666.666666666627862 ], [ 505000.0, 1001666.666666666627862 ] ] ] } },
{ "type": "Feature", "properties": { "landuse": "suburban", "weight": 4.0 }, "geometry": { "type": "Polygon", "coordinates": [ [ [ 506666.666666666686069, 1001666.666666666627862 ], [ 506666.666666666686069, 1003333.333333333255723 ], [ 505000.0, 1003333.333333333255723 ], [ 505000.0, 1001666.666666666627862 ], [ 506666.666666666686069, 1001666.666666666627862 ] ] ] } },
{ "type": "Feature", "properties": { "landuse": "rural", "weight": 1.0 }, "geometry": { "type": "Polygon", "coordinates": [ [ [ 508333.333333333372138, 1001666.666666666627862 ], [ 508333.333333333372138, 1003333.333333333255723 ], [ 506666.666666666686069, 1003333.333333333255723 ], [ 506666.666666666686069, 1001666.666666666627862 ], [ 508333.333333333372138, 1001666.666666666627862 ] ] ] } },
{ "type": "Feature", "properties": { "landuse": "rural", "weight": 1.0 }, "geometry": { "type": "Polygon", "coordinates": [ [ [ 510000.0, 1001666.666666666627862 ], [ 510000.0, 1003333.333333333255723 ], [ 508333.333333333313931, 1003333.333333333255723 ], [ 508333.333333333313931, 1001666.666666666627862 ], [ 510000.0, 1001666.666666666627862 ] ] ] } },
{ "type": "Feature", "properties": { "landuse": "urban", "weight": 10.0 }, "geometry": { "type": "Polygon", "coordinates": [ [ [ 501666.666666666686069, 1003333.333333333372138 ], [ 501666.666666666686069, 1005000.0 ], [ 500000.0, 1005000.0 ], [ 500000.0, 1003333.333333333372138 ], [ 501666.666666666686069, 1003333.333333333372138 ] ] ] } },
{ "type": "Feature", "properties": { "landuse": "rural", "weight": 1.0 }, "geometry": { "type": "Polygon", "coordinates": [ [ [ 503333.333333333372138, 1003333.333333333372138 ], [ 503333.333333333372138, 1005000.0 ], [ 501666.666666666686069, 1005000.0 ], [ 501666.666666666686069, 1003333.333333333372138 ], [ 503333.333333333372138, 1003333.333333333372138 ] ] ] } },
{ "type": "Feature", "properties": { "landuse": "rural", "weight": 1.0 }, "geometry": { "type": "Polygon", "coordinates": [ [ [ 505000.0, 1003333.333333333372138 ], [ 505000.0, 1005000.0 ], [ 503333.333333333313931, 1005000.0 ], [ 503333.333333333313931, 1003333.333333333372138 ], [ 505000.0, 1003333.333333333372138 ] ] ] } },
{ "type": "Feature", "properties": { "landuse": "suburban", "weight": 4.0 }, "geometry": { "type": "Polygon", "coordinates": [ [ [ 506666.666666666686069, 1003333.333333333372138 ], [ 506666.666666666686069, 1005000.0 ], [ 505000.0, 1005000.0 ], [ 505000.0, 1003333.333333333372138 ], [ 506666.666666666686069, 1003333.333333333372138 ] ] ] } },
{ "type": "Feature", "properties": { "landuse": "suburban", "weight": 4.0 }, "geometry": { "type": "Polygon", "coordinates": [ [ [ 508333.333333333372138, 1003333.333333333372138 ], [ 508333.333333333372138, 1005000.0 ], [ 506666.666666666686069, 1005000.0 ], [ 506666.666666666686069, 1003333.333333333372138 ], [ 508333.333333333372138, 1003333.333333333372138 ] ] ] } },
{ "type": "Feature", "properties": { "landuse": "rural", "weight": 1.0 }, "geometry": { "type": "Polygon", "coordinates": [ [ [ 510000.0, 1003333.333333333372138 ], [ 510000.0, 1005000.0 ], [ 508333.333333333313931, 1005000.0 ], [ 508333.333333333313931, 1003333.333333333372138 ], [ 510000.0, 1003333.333333333372138 ] ] ] } },
{ "type": "Feature", "properties": { "landuse": "urban", "weight": 10.0 }, "geometry": { "type": "Polygon", "coordinates": [ [ [ 501666.666666666686069, 1005000.0 ], [ 501666.666666666686069, 1006666.666666666627862 ], [ 500000.0, 1006666.666666666627862 ], [ 500000.0, 1005000.0 ], [ 501666.666666666686069, 1005000.0 ] ] ] } },
{ "type": "Feature", "properties": { "landuse": "suburban", "weight": 4.0 }, "geometry": { "type": "Polygon", "coordinates": [ [ [ 503333.333333333372138, 1005000.0 ], [ 503333.333333333372138, 1006666.666666666627862 ], [ 501666.666666666686069, 1006666.666666666627862 ], [ 501666.666666666686069, 1005000.0 ], [ 503333.333333333372138, 1005000.0 ] ] ] } },
{ "type": "Feature", "properties": { "landuse": "urban", "weight": 10.0 }, "geometry": { "type": "Polygon", "coordinates": [ [ [ 505000.0, 1005000.0 ], [ 505000.0, 1006666.666666666627862 ], [ 503333.333333333313931, 1006666.666666666627862 ], [ 503333.333333333313931, 1005000.0 ], [ 505000.0, 1005000.0 ] ] ] } },
{ "type": "Feature", "properties": { "landuse": "rural", "weight": 1.0 }, "geometry": { "type": "Polygon", "coordinates": [ [ [ 506666.666666666686069, 1005000.0 ], [ 506666.666666666686069, 1006666.666666666627862 ], [ 505000.0, 1006666.666666666627862 ], [ 505000.0, 1005000.0 ], [ 506666.666666666686069, 1005000.0 ] ] ] } },
{ "type": "Feature", "properties": { "landuse": "suburban", "weight": 4.0 }, "geometry": { "type": "Polygon", "coordinates": [ [ [ 508333.333333333372138, 1005000.0 ], [ 508333.333333333372138, 1006666.666666666627862 ], [ 506666.666666666686069, 1006666.666666666627862 ], [ 506666.666666666686069, 1005000.0 ], [ 508333.333333333372138, 1005000.0 ] ] ] } },
{ "type": "Feature", "properties": { "landuse": "rural", "weight": 1.0 }, "geometry": { "type": "Polygon", "coordinates": [ [ [ 510000.0, 1005000.0 ], [ 510000.0, 1006666.666666666627862 ], [ 508333.333333333313931, 1006666.666666666627862 ], [ 508333.333333333313931, 1005000.0 ], [ 510000.0, 1005000.0 ] ] ] } },
{ "type": "Feature", "properties": { "landuse": "rural", "weight": 1.0 }, "geometry": { "type": "Polygon", "coordinates": [ [ [ 501666.666666666686069, 1006666.666666666627862 ], [ 501666.666666666686069, 1008333.333333333255723 ], [ 500000.0, 1008333.333333333255723 ], [ 500000.0, 1006666.666666666627862 ], [ 501666.666666666686069, 1006666.666666666627862 ] ] ] } },
{ "type": "Feature", "properties": { "landuse": "suburban", "weight": 4.0 }, "geometry": { "type": "Polygon", "coordinates": [ [ [ 503333.333333333372138, 1006666.666666666627862 ], [ 503333.333333333372138, 1008333.333333333255723 ], [ 501666.666666666686069, 1008333.333333333255723 ], [ 501666.666666666686069, 1006666.666666666627862 ], [ 503333.333333333372138, 1006666.666666666627862 ] ] ] } },
{ "type": "Feature", "properties": { "landuse": "rural", "weight": 1.0 }, "geometry": { "type": "Polygon", "coordinates": [ [ [ 505000.0, 1006666.666666666627862 ], [ 505000.0, 1008333.333333333255723 ], [ 503333.333333333313931, 1008333.333333333255723 ], [ 503333.333333333313931, 1006666.666666666627862 ], [ 505000.0, 1006666.666666666627862 ] ] ] } },
{ "type": "Feature", "properties": { "landuse": "suburban", "weight": 4.0 }, "geometry": { "type": "Polygon", "coordinates": [ [ [ 506666.666666666686069, 1006666.666666666627862 ], [ 506666.666666666686069, 1008333.333333333255723 ], [ 505000.0, 1008333.333333333255723 ], [ 505000.0, 1006666.666666666627862 ], [ 506666.666666666686069, 1006666.666666666627862 ] ] ] } },
{ "type": "Feature", "properties": { "landuse": "suburban", "weight": 4.0 }, "geometry": { "type": "Polygon", "coordinates": [ [ [ 508333.333333333372138, 1006666.666666666627862 ], [ 508333.333333333372138, 1008333.333333333255723 ], [ 506666.666666666686069, 1008333.333333333255723 ], [ 506666.666666666686069, 1006666.666666666627862 ], [ 508333.333333333372138, 1006666.666666666627862 ] ] ] } },
{ "type": "Feature", "properties": { "landuse": "rural", "weight": 1.0 }, "geometry": { "type": "Polygon", "coordinates": [ [ [ 510000.0, 1006666.666666666627862 ], [ 510000.0, 1008333.333333333255723 ], [ 508333.333333333313931, 1008333.333333333255723 ], [ 508333.333333333313931, 1006666.666666666627862 ], [ 510000.0, 1006666.666666666627862 ] ] ] } },
{ "type": "Feature", "properties": { "landuse": "suburban", "weight": 4.0 }, "geometry": { "type": "Polygon", "coordinates": [ [ [ 501666.666666666686069, 1008333.333333333372138 ], [ 501666.666666666686069, 1010000.0 ], [ 500000.0, 1010000.0 ], [ 500000.0, 1008333.333333333372138 ], [ 501666.666666666686069, 1008333.333333333372138 ] ] ] } },
{ "type": "Feature", "properties": { "landuse": "rural", "weight": 1.0 }, "geometry": { "type": "Polygon", "coordinates": [ [ [ 503333.333333333372138, 1008333.333333333372138 ], [ 503333.333333333372138, 1010000.0 ], [ 501666.666666666686069, 1010000.0 ], [ 501666.666666666686069, 1008333.333333333372138 ], [ 503333.333333333372138, 1008333.333333333372138 ] ] ] } },
{ "type": "Feature", "properties": { "landuse": "water", "weight": 0.0 }, "geometry": { "type": "Polygon", "coordinates": [ [ [ 505000.0, 1008333.333333333372138 ], [ 505000.0, 1010000.0 ], [ 503333.333333333313931, 1010000.0 ], [ 503333.333333333313931, 1008333.333333333372138 ], [ 505000.0, 1008333.333333333372138 ] ] ] } },
{ "type": "Feature", "properties": { "landuse": "suburban", "weight": 4.0 }, "geometry": { "type": "Polygon", "coordinates": [ [ [ 506666.666666666686069, 1008333.333333333372138 ], [ 506666.666666666686069, 1010000.0 ], [ 505000.0, 1010000.0 ], [ 505000.0, 1008333.333333333372138 ], [ 506666.666666666686069, 1008333.333333333372138 ] ] ] } },
{ "type": "Feature", "properties": { "landuse": "rural", "weight": 1.0 }, "geometry": { "type": "Polygon", "coordinates": [ [ [ 508333.333333333372138, 1008333.333333333372138 ], [ 508333.333333333372138, 1010000.0 ], [ 506666.666666666686069, 1010000.0 ], [ 506666.666666666686069, 1008333.333333333372138 ], [ 508333.333333333372138, 1008333.333333333372138 ] ] ] } },
{ "type": "Feature", "properties": { "landuse": "rural", "weight": 1.0 }, "geometry": { "type": "Polygon", "coordinates": [ [ [ 510000.0, 1008333.333333333372138 ], [ 510000.0, 1010000.0 ], [ 508333.333333333313931, 1010000.0 ], [ 508333.333333333313931, 1008333.333333333372138 ], [ 510000.0, 1008333.333333333372138 ] ] ] } }
]
}
