{
"type": "FeatureCollection",
"name": "stations",
"crs": { "type": "name", "properties": { "name": "urn:ogc:def:crs:EPSG::32643" } },
"features": [
{ "type": "Feature", "properties": { "station_id": "ST000", "temperature": 27.63, "elevation": 502.9 }, "geometry": { "type": "Point", "coordinates": [ 507739.56048555963207, 1006643.135403273859993 ] } },
{ "type": "Feature", "properties": { "station_id": "ST001", "temperature": 28.87, "elevation": 320.4 }, "geometry": { "type": "Point", "coordinates": [ 504388.784397520532366, 1004063.868614400736988 ] } },
{ "type": "Feature", "properties": { "station_id": "ST002", "temperature": 27.13, "elevation": 389.5 }, "geometry": { "type": "Point", "coordinates": [ 508585.979199113848154, 1008140.203846660326235 ] } },
{ "type": "Feature", "properties": { "station_id": "ST003", "temperature": 29.81, "elevation": 239.1 }, "geometry": { "type": "Point", "coordinates": [ 506973.680290593649261, 1001669.729199077002704 ] } },
{ "type": "Feature", "properties": { "station_id": "ST004", "temperature": 30.48, "elevation": 206.8 }, "geometry": { "type": "Point", "coordinates": [ 500941.773478876508307, 1000227.120731338625774 ] } },
{ "type": "Feature", "properties": { "station_id": "ST005", "temperature": 31.21, "elevation": 244.3 }, "geometry": { "type": "Point", "coordinates": [ 509756.223516367550474, 1000900.47860775643494 ] } },
{ "type": "Feature", "properties": { "station_id": "ST006", "temperature": 26.83, "elevation": 492.9 }, "geometry": { "type": "Point", "coordinates": [ 507611.397019903524779, 1007223.593505964498036 ] } },
{ "type": "Feature", "properties": { "station_id": "ST007", "temperature": 28.86, "elevation": 382.6 }, "geometry": { "type": "Point", "coordinates": [ 507860.643052769533824, 1004618.772302513825707 ] } },
{ "type": "Feature", "properties": { "station_id": "ST008", "temperature": 29.63, "elevation": 273.2 }, "geometry": { "type": "Point", "coordinates": [ 501281.136326755455229, 1001612.71779033599887 ] } },
{ "type": "Feature", "properties": { "station_id": "ST009", "temperature": 29.14, "elevation": 330.6 }, "geometry": { "type": "Point", "coordinates": [ 504503.85937895567622, 1005010.447751033585519 ] } },
{ "type": "Feature", "properties": { "station_id": "ST010", "temperature": 30.09, "elevation": 284.5 }, "geometry": { "type": "Point", "coordinates": [ 503707.980242325807922, 1001523.121027131681331 ] } },
{ "type": "Feature", "properties": { "station_id": "ST011", "temperature": 27.87, "elevation": 383.9 }, "geometry": { "type": "Point", "coordinates": [ 509267.649888486019336, 1006963.203750777407549 ] } },
{ "type": "Feature", "properties": { "station_id": "ST012", "temperature": 28.61, "elevation": 373.2 }, "geometry": { "type": "Point", "coordinates": [ 506438.651200806663837, 1004461.562755740364082 ] } },
{ "type": "Feature", "properties": { "station_id": "ST013", "temperature": 28.92, "elevation": 313.0 }, "geometry": { "type": "Point", "coordinates": [ 508227.616132708324585, 1003810.212260964792222 ] } },
{ "type": "Feature", "properties": { "station_id": "ST014", "temperature": 29.6, "elevation": 307.1 }, "geometry": { "type": "Point", "coordinates": [ 504434.141988273302559, 1003015.120891478727572 ] } },
{ "type": "Feature", "properties": { "station_id": "ST015", "temperature": 28.76, "elevation": 254.4 }, "geometry": { "type": "Point", "coordinates": [ 502272.387217847746797, 1006302.82593118888326 ] } },
{ "type": "Feature", "properties": { "station_id": "ST016", "temperature": 28.81, "elevation": 302.5 }, "geometry": { "type": "Point", "coordinates": [ 505545.847870158322621, 1003618.126105533912778 ] } },
{ "type": "Feature", "properties": { "station_id": "ST017", "temperature": 30.01, "elevation": 219.5 }, "geometry": { "type": "Point", "coordinates": [ 500638.172561041777954, 1000876.499193161027506 ] } },
{ "type": "Feature", "properties": { "station_id": "ST018", "temperature": 30.39, "elevation": 238.6 }, "geometry": { "type": "Point", "coordinates": [ 508276.311719925841317, 1001180.059021205175668 ] } },
{ "type": "Feature", "properties": { "station_id": "ST019", "temperature": 28.3, "elevation": 323.2 }, "geometry": { "type": "Point", "coordinates": [ 506316.643991220626049, 1009618.976645495160483 ] } },
{ "type": "Feature", "properties": { "station_id": "ST020", "temperature": 27.62, "elevation": 360.6 }, "geometry": { "type": "Point", "coordinates": [ 507580.877400853729341, 1009085.806907076039352 ] } },
{ "type": "Feature", "properties": { "station_id": "ST021", "temperature": 28.54, "elevation": 282.3 }, "geometry": { "type": "Point", "coordinates": [ 503545.25968129868852, 1006997.071338107460178 ] } },
{ "type": "Feature", "properties": { "station_id": "ST022", "temperature": 29.92, "elevation": 260.8 }, "geometry": { "type": "Point", "coordinates": [ 509706.980243949044961, 1002658.699614595156163 ] } },
{ "type": "Feature", "properties": { "station_id": "ST023", "temperature": 28.21, "elevation": 317.3 }, "geometry": { "type": "Point", "coordinates": [ 508931.211213221948128, 1009691.763773477287032 ] } },
{ "type": "Feature", "properties": { "station_id": "ST024", "temperature": 27.38, "elevation": 451.5 }, "geometry": { "type": "Point", "coordinates": [ 507783.83497073763283, 1007787.509039657888934 ] } },
{ "type": "Feature", "properties": { "station_id": "ST025", "temperature": 28.64, "elevation": 242.5 }, "geometry": { "type": "Point", "coordinates": [ 501946.387078519677743, 1007168.901891589979641 ] } },
{ "type": "Feature", "properties": { "station_id": "ST026", "temperature": 29.37, "elevation": 326.2 }, "geometry": { "type": "Point", "coordinates": [ 504667.21003727032803, 1004493.615021437872201 ] } },
{ "type": "Feature", "properties": { "station_id": "ST027", "temperature": 29.96, "elevation": 262.1 }, "geometry": { "type": "Point", "coordinates": [ 500438.037657872308046, 1002722.415618451545015 ] } },
{ "type": "Feature", "properties": { "station_id": "ST028", "temperature": 30.92, "elevation": 249.6 }, "geometry": { "type": "Point", "coordinates": [ 501542.894920675491448, 1000963.90962153498549 ] } },
{ "type": "Feature", "properties": { "station_id": "ST029", "temperature": 27.62, "elevation": 364.5 }, "geometry": { "type": "Point", "coordinates": [ 506830.48953242454445, 1009026.023965438362211 ] } },
{ "type": "Feature", "properties": { "station_id": "ST030", "temperature": 28.03, "elevation": 386.8 }, "geometry": { "type": "Point", "coordinates": [ 507447.621559078164864, 1004557.762898336164653 ] } },
{ "type": "Feature", "properties": { "station_id": "ST031", "temperature": 29.47, "elevation": 253.0 }, "geometry": { "type": "Point", "coordinates": [ 509675.097324342117645, 1002023.6336479523452 ] } },
{ "type": "Feature", "properties": { "station_id": "ST032", "temperature": 29.76, "elevation": 355.0 }, "geometry": { "type": "Point", "coordinates": [ 503258.253581381519325, 1003059.566241506487131 ] } },
{ "type": "Feature", "properties": { "station_id": "ST033", "temperature": 29.46, "elevation": 299.7 }, "geometry": { "type": "Point", "coordinates": [ 503704.597060348663945, 1005792.195689418935217 ] } },
{ "type": "Feature", "properties": { "station_id": "ST034", "temperature": 29.94, "elevation": 263.6 }, "geometry": { "type": "Point", "coordinates": [ 504695.558112758095376, 1001767.727829392300919 ] } },
{ "type": "Feature", "properties": { "station_id": "ST035", "temperature": 28.28, "elevation": 244.7 }, "geometry": { "type": "Point", "coordinates": [ 501894.713590842846315, 1008566.14284092374146 ] } },
{ "type": "Feature", "properties": { "station_id": "ST036", "temperature": 29.32, "elevation": 235.9 }, "geometry": { "type": "Point", "coordinates": [ 501299.215053354739211, 1007585.195298352045938 ] } },
{ "type": "Feature", "properties": { "station_id": "ST037", "temperature": 27.61, "elevation": 357.0 }, "geometry": { "type": "Point", "coordinates": [ 504757.049262259330135, 1007194.629559509339742 ] } },
{ "type": "Feature", "properties": { "station_id": "ST038", "temperature": 28.61, "elevation": 327.1 }, "geometry": { "type": "Point", "coordinates": [ 502269.093490508850664, 1004320.930397751042619 ] } },
{ "type": "Feature", "properties": { "station_id": "ST039", "temperature": 27.53, "elevation": 512.2 }, "geometry": { "type": "Point", "coordinates": [ 506698.139946825103834, 1006273.088407024391927 ] } },
{ "type": "Feature", "properties": { "station_id": "ST040", "temperature": 28.39, "elevation": 332.6 }, "geometry": { "type": "Point", "coordinates": [ 504371.519188723294064, 1005840.979689127299935 ] } },
{ "type": "Feature", "properties": { "station_id": "ST041", "temperature": 27.53, "elevation": 462.9 }, "geometry": { "type": "Point", "coordinates": [ 508326.781960578402504, 1006498.466015548212454 ] } },
{ "type": "Feature", "properties": { "station_id": "ST042", "temperature": 30.4, "elevation": 229.4 }, "geometry": { "type": "Point", "coordinates": [ 507002.651020022516605, 1000844.443211398902349 ] } },
{ "type": "Feature", "properties": { "station_id": "ST043", "temperature": 29.07, "elevation": 338.3 }, "geometry": { "type": "Point", "coordinates": [ 503123.666413820406888, 1004158.074021706124768 ] } },
{ "type": "Feature", "properties": { "station_id": "ST044", "temperature": 31.12, "elevation": 232.9 }, "geometry": { "type": "Point", "coordinates": [ 508322.598013952025212, 1000416.141738618956879 ] } },
{ "type": "Feature", "properties": { "station_id": "ST045", "temperature": 28.36, "elevation": 402.4 }, "geometry": { "type": "Point", "coordinates": [ 508047.643574968038592, 1004939.908192445174791 ] } },
{ "type": "Feature", "properties": { "station_id": "ST046", "temperature": 29.44, "elevation": 333.3 }, "geometry": { "type": "Point", "coordinates": [ 503874.783790301764384, 1003298.612123327795416 ] } },
{ "type": "Feature", "properties": { "station_id": "ST047", "temperature": 29.06, "elevation": 296.0 }, "geometry": { "type": "Point", "coordinates": [ 502883.281039302470163, 1001445.241888660471886 ] } },
{ "type": "Feature", "properties": { "station_id": "ST048", "temperature": 30.39, "elevation": 230.6 }, "geometry": { "type": "Point", "coordinates": [ 506824.955039749736898, 1001034.029677225509658 ] } },
{ "type": "Feature", "properties": { "station_id": "ST049", "temperature": 28.76, "elevation": 247.4 }, "geometry": { "type": "Point", "coordinates": [ 501397.524836093070917, 1005876.445721777155995 ] } },
{ "type": "Feature", "properties": { "station_id": "ST050", "temperature": 29.28, "elevation": 304.4 }, "geometry": { "type": "Point", "coordinates": [ 501999.082024751056451, 1001705.929685368901119 ] } },
{ "type": "Feature", "properties": { "station_id": "ST051", "temperature": 27.97, "elevation": 236.0 }, "geometry": { "type": "Point", "coordinates": [ 500073.62269751005806, 1009251.201183767989278 ] } },
{ "type": "Feature", "properties": { "station_id": "ST052", "temperature": 27.5, "elevation": 474.0 }, "geometry": { "type": "Point", "coordinates": [ 507869.243775021401234, 1005810.611397003987804 ] } },
{ "type": "Feature", "properties": { "station_id": "ST053", "temperature": 29.72, "elevation": 300.4 }, "geometry": { "type": "Point", "coordinates": [ 506648.508565920346882, 1003468.698045348399319 ] } },
{ "type": "Feature", "properties": { "station_id": "ST054", "temperature": 26.89, "elevation": 503.4 }, "geometry": { "type": "Point", "coordinates": [ 507051.653786263370421, 1005909.154914814163931 ] } },
{ "type": "Feature", "properties": { "station_id": "ST055", "temperature": 30.64, "elevation": 228.7 }, "geometry": { "type": "Point", "coordinates": [ 507807.290310219686944, 1000228.038710296968929 ] } },
{ "type": "Feature", "properties": { "station_id": "ST056", "temperature": 27.73, "elevation": 285.2 }, "geometry": { "type": "Point", "coordinates": [ 504589.157755383406766, 1009585.59213241445832 ] } },
{ "type": "Feature", "properties": { "station_id": "ST057", "temperature": 28.39, "elevation": 375.3 }, "geometry": { "type": "Point", "coordinates": [ 505687.411959528923035, 1004823.03436942899134 ] } },
{ "type": "Feature", "properties": { "station_id": "ST058", "temperature": 29.07, "elevation": 237.5 }, "geometry": { "type": "Point", "coordinates": [ 501397.969981276546605, 1007827.352272502845153 ] } },
{ "type": "Feature", "properties": { "station_id": "ST059", "temperature": 30.67, "elevation": 232.3 }, "geometry": { "type": "Point", "coordinates": [ 501145.30073535972042, 1000827.299999224371277 ] } },
{ "type": "Feature", "properties": { "station_id": "ST060", "temperature": 28.79, "elevation": 415.5 }, "geometry": { "type": "Point", "coordinates": [ 506684.029617904743645, 1004866.58330838161055 ] } },
{ "type": "Feature", "properties": { "station_id": "ST061", "temperature": 28.7, "elevation": 336.1 }, "geometry": { "type": "Point", "coordinates": [ 504710.962061431317125, 1004907.069943545153365 ] } },
{ "type": "Feature", "properties": { "station_id": "ST062", "temperature": 27.48, "elevation": 318.5 }, "geometry": { "type": "Point", "coordinates": [ 505652.361064811877441, 1009378.264549749786966 ] } },
{ "type": "Feature", "properties": { "station_id": "ST063", "temperature": 27.54, "elevation": 479.2 }, "geometry": { "type": "Point", "coordinates": [ 507649.988574160262942, 1005717.280523760709912 ] } },
{ "type": "Feature", "properties": { "station_id": "ST064", "temperature": 28.52, "elevation": 394.8 }, "geometry": { "type": "Point", "coordinates": [ 506347.183200005907565, 1004734.894010569551028 ] } },
{ "type": "Feature", "properties": { "station_id": "ST065", "temperature": 29.83, "elevation": 268.2 }, "geometry": { "type": "Point", "coordinates": [ 505535.794006579963025, 1002669.756630918942392 ] } },
{ "type": "Feature", "properties": { "station_id": "ST066", "temperature": 29.02, "elevation": 289.7 }, "geometry": { "type": "Point", "coordinates": [ 505592.071607454156037, 1003315.689973425469361 ] } },
{ "type": "Feature", "properties": { "station_id": "ST067", "temperature": 28.97, "elevation": 297.3 }, "geometry": { "type": "Point", "coordinates": [ 503039.500980626093224, 1005206.724024715367705 ] } },
{ "type": "Feature", "properties": { "station_id": "ST068", "temperature": 29.56, "elevation": 247.3 }, "geometry": { "type": "Point", "coordinates": [ 500308.178345679421909, 1004389.114603050518781 ] } },
{ "type": "Feature", "properties": { "station_id": "ST069", "temperature": 31.67, "elevation": 223.5 }, "geometry": { "type": "Point", "coordinates": [ 504367.173892323626205, 1000216.120798803283833 ] } },
{ "type": "Feature", "properties": { "station_id": "ST070", "temperature": 29.26, "elevation": 246.1 }, "geometry": { "type": "Point", "coordinates": [ 502145.846728195319884, 1008262.919241943629459 ] } },
{ "type": "Feature", "properties": { "station_id": "ST071", "temperature": 27.76, "elevation": 281.3 }, "geometry": { "type": "Point", "coordinates": [ 504085.286437246366404, 1008961.607718397630379 ] } },
{ "type": "Feature", "properties": { "station_id": "ST072", "temperature": 30.13, "elevation": 242.0 }, "geometry": { "type": "Point", "coordinates": [ 508534.03073268168373, 1001402.490889986162074 ] } },
{ "type": "Feature", "properties": { "station_id": "ST073", "temperature": 28.42, "elevation": 274.3 }, "geometry": { "type": "Point", "coordinates": [ 502339.394858653424308, 1005540.361435390543193 ] } },
{ "type": "Feature", "properties": { "station_id": "ST074", "temperature": 30.2, "elevation": 224.6 }, "geometry": { "type": "Point", "coordinates": [ 500583.027416890661698, 1001085.757411354454234 ] } },
{ "type": "Feature", "properties": { "station_id": "ST075", "temperature": 28.92, "elevation": 260.3 }, "geometry": { "type": "Point", "coordinates": [ 502813.838920219975989, 1006722.400930398143828 ] } },
{ "type": "Feature", "properties": { "station_id": "ST076", "temperature": 29.61, "elevation": 359.6 }, "geometry": { "type": "Point", "coordinates": [ 502935.937577666831203, 1002812.337838390027173 ] } },
{ "type": "Feature", "properties": { "station_id": "ST077", "temperature": 26.89, "elevation": 513.1 }, "geometry": { "type": "Point", "coordinates": [ 506619.165147268970031, 1006594.226346918963827 ] } },
{ "type": "Feature", "properties": { "station_id": "ST078", "temperature": 27.33, "elevation": 425.2 }, "geometry": { "type": "Point", "coordinates": [ 505570.321523412771057, 1007269.946142868837342 ] } },
{ "type": "Feature", "properties": { "station_id": "ST079", "temperature": 26.43, "elevation": 456.0 }, "geometry": { "type": "Point", "coordinates": [ 507838.98209106415743, 1007686.474919176544063 ] } }
]
}
