{
"type": "FeatureCollection",
"name": "target_zones",
"crs": { "type": "name", "properties": { "name": "urn:ogc:def:crs:EPSG::32643" } },
"features": [
{ "type": "Feature", "properties": { "district_id": "D0" }, "geometry": { "type": "Polygon", "coordinates": [ [ [ 503333.333333333313931, 1000000.0 ], [ 503333.333333333313931, 1003333.333333333372138 ], [ 500000.0, 1003333.333333333372138 ], [ 500000.0, 1000000.0 ], [ 503333.333333333313931, 1000000.0 ] ] ] } },
{ "type": "Feature", "properties": { "district_id": "D1" }, "geometry": { "type": "Polygon", "coordinates": [ [ [ 506666.666666666627862, 1000000.0 ], [ 506666.666666666627862, 1003333.333333333372138 ], [ 503333.333333333313931, 1003333.333333333372138 ], [ 503333.333333333313931, 1000000.0 ], [ 506666.666666666627862, 1000000.0 ] ] ] } },
{ "type": "Feature", "properties": { "district_id": "D2" }, "geometry": { "type": "Polygon", "coordinates": [ [ [ 510000.0, 1000000.0 ], [ 510000.0, 1003333.333333333372138 ], [ 506666.666666666686069, 1003333.333333333372138 ], [ 506666.666666666686069, 1000000.0 ], [ 510000.0, 1000000.0 ] ] ] } },
{ "type": "Feature", "properties": { "district_id": "D3" }, "geometry": { "type": "Polygon", "coordinates": [ [ [ 503333.333333333313931, 1003333.333333333372138 ], [ 503333.333333333313931, 1006666.666666666744277 ], [ 500000.0, 1006666.666666666744277 ], [ 500000.0, 1003333.333333333372138 ], [ 503333.333333333313931, 1003333.333333333372138 ] ] ] } },
{ "type": "Feature", "properties": { "district_id": "D4" }, "geometry": { "type": "Polygon", "coordinates": [ [ [ 506666.666666666627862, 1003333.333333333372138 ], [ 506666.666666666627862, 1006666.666666666744277 ], [ 503333.333333333313931, 1006666.666666666744277 ], [ 503333.333333333313931, 1003333.333333333372138 ], [ 506666.666666666627862, 1003333.333333333372138 ] ] ] } },
{ "type": "Feature", "properties": { "district_id": "D5" }, "geometry": { "type": "Polygon", "coordinates": [ [ [ 510000.0, 1003333.333333333372138 ], [ 510000.0, 1006666.666666666744277 ], [ 506666.666666666686069, 1006666.666666666744277 ], [ 506666.666666666686069, 1003333.333333333372138 ], [ 510000.0, 1003333.333333333372138 ] ] ] } },
{ "type": "Feature", "properties": { "district_id": "D6" }, "geometry": { "type": "Polygon", "coordinates": [ [ [ 503333.333333333313931, 1006666.666666666627862 ], [ 503333.333333333313931, 1010000.0 ], [ 500000.0, 1010000.0 ], [ 500000.0, 1006666.666666666627862 ], [ 503333.333333333313931, 1006666.666666666627862 ] ] ] } },
{ "type": "Feature", "properties": { "district_id": "D7" }, "geometry": { "type": "Polygon", "coordinates": [ [ [ 506666.666666666627862, 1006666.666666666627862 ], [ 506666.666666666627862, 1010000.0 ], [ 503333.333333333313931, 1010000.0 ], [ 503333.333333333313931, 1006666.666666666627862 ], [ 506666.666666666627862, 1006666.666666666627862 ] ] ] } },
{ "type": "Feature", "properties": { "district_id": "D8" }, "geometry": { "type": "Polygon", "coordinates": [ [ [ 510000.0, 1006666.666666666627862 ], [ 510000.0, 1010000.0 ], [ 506666.666666666686069, 1010000.0 ], [ 506666.666666666686069, 1006666.666666666627862 ], [ 510000.0, 1006666.666666666627862 ] ] ] } }
]
}
